IRIDIUM 155             
1 43573U 18061E   25036.91738997  .00000532  00000+0  18278-3 0  9995
2 43573  86.3927 264.0374 0002318  92.4584 267.6878 14.34217319342223
IRIDIUM 154             
1 43574U 18061F   25036.89836306  .00000225  00000+0  73210-4 0  9993
2 43574  86.3930 264.1544 0002063  85.0536 275.0895 14.34217704342275
IRIDIUM 163             
1 43575U 18061G   25036.87933382  .00000196  00000+0  62819-4 0  9994
2 43575  86.3929 264.0933 0001948  89.9157 270.2262 14.34218269342247
IRIDIUM 156             
1 43576U 18061H   25036.92371570  .00000539  00000+0  18547-3 0  9995
2 43576  86.3928 264.0818 0002542  89.1750 270.9737 14.34214767342244
IRIDIUM 164             
1 43577U 18061J   25036.90469462  .00000134  00000+0  40947-4 0  9993
2 43577  86.3929 264.1221 0002070  80.1765 279.9665 14.34212032342284
IRIDIUM 159             
1 43578U 18061K   25036.87299020  .00000501  00000+0  17171-3 0  9991
2 43578  86.3930 264.0822 0001787  83.3458 276.7941 14.34217933342244
IRIDIUM 180             
1 43922U 19002A   25036.94226055  .00000655  00000+0  22678-3 0  9994
2 43922  86.3994 200.9502 0001968  96.9471 263.1949 14.34217878317863
IRIDIUM 176             
1 43923U 19002B   25036.92676099  .00002198  00000+0  34454-3 0  9999
2 43923  86.6120 200.9599 0001068  99.7692 260.3645 14.72257465326232
IRIDIUM 168             
1 43924U 19002C   25036.93591043  .00000205  00000+0  66192-4 0  9998
2 43924  86.3994 201.0160 0001859  92.1852 267.9557 14.34219334317841
IRIDIUM 173             
1 43925U 19002D   25036.92322154  .00000629  00000+0  21749-3 0  9991
2 43925  86.3992 200.9307 0002039  95.7849 264.3579 14.34222538317820
IRIDIUM 169             
1 43926U 19002E   25036.90227739  .00000274  00000+0  83097-4 0  9994
2 43926  86.4198 232.5364 0002909 122.1342 238.0139 14.38606529318879
IRIDIUM 172             
1 43927U 19002F   25036.91688866  .00000485  00000+0  16611-3 0  9999
2 43927  86.3992 200.9398 0001883  93.3013 266.8398 14.34221128317836
IRIDIUM 175             
1 43928U 19002G   25036.85350341  .00002611  00000+0  41027-3 0  9999
2 43928  86.1564 160.9999 0002958  97.0369 263.1184 14.72228778326216
IRIDIUM 171             
1 43929U 19002H   25036.89786373  .00000551  00000+0  18963-3 0  9996
2 43929  86.4000 201.1987 0002320  84.2794 275.8666 14.34218426317822
IRIDIUM 170             
1 43930U 19002J   25036.93293369  .00001902  00000+0  29784-3 0  9995
2 43930  86.6120 200.9623 0002083 101.4203 258.7249 14.72244247326241
IRIDIUM 167             
1 43931U 19002K   25036.96128240  .00000611  00000+0  21106-3 0  9990
2 43931  86.3992 200.9393 0002436  93.0600 267.0875 14.34221211317836
IRIDIUM 181             
1 56726U 23068S   25036.91603981  .00000774  00000+0  22411-3 0  9998
2 56726  86.4468 264.0790 0002478  79.8854 280.2626 14.43303533 90851
IRIDIUM 177             
1 56727U 23068T   25036.92397826  .00001354  00000+0  17456-3 0  9996
2 56727  86.1985 204.3747 0001931  96.8198 263.3242 14.80254754 92955
IRIDIUM 174             
1 56728U 23068U   25036.91855309  .00001392  00000+0  17972-3 0  9996
2 56728  86.1989 204.4992 0002198  84.0492 276.0979 14.80231407 92953
IRIDIUM 178             
1 56729U 23068V   25036.91314571  .00001078  00000+0  13840-3 0  9999
2 56729  86.5751 233.0145 0002571  68.4851 291.6644 14.80234214 92954
IRIDIUM 179             
1 56730U 23068W   25036.84011036  .00001006  00000+0  12898-3 0  9996
2 56730  86.6753 240.1204 0002127  83.3502 276.7962 14.80236321 92947
